GLOBALSTAR M023         
1 25621U 99004A   24128.53782461 -.00000074  00000+0  16456-3 0  9997
2 25621  52.0094 208.6089 0009834 310.8490 152.9906 12.62452230164493
GLOBALSTAR M040         
1 25622U 99004B   24129.54394389 -.00000039  00000+0  36378-3 0  9994
2 25622  51.9907 209.1037 0000817 197.2543 267.7812 12.61973082164462
GLOBALSTAR M036         
1 25623U 99004C   24128.61585847 -.00000114  00000+0 -45020-3 0  9992
2 25623  51.9959 229.2876 0010822 353.6432 112.9288 11.86565733130812
GLOBALSTAR M038         
1 25624U 99004D   24129.09350747 -.00000043  00000+0  42849-3 0  9991
2 25624  51.9947 158.1667 0001804 286.8583 112.1860 12.32498837152388
GLOBALSTAR M022         
1 25649U 99012A   24129.50962531 -.00000073  00000+0  17129-3 0  9999
2 25649  52.0048 310.9830 0003322  90.7402 304.4179 12.02481822127775
GLOBALSTAR M041         
1 25650U 99012B   24129.52621881 -.00000093  00000+0 -95327-4 0  9993
2 25650  52.0002 180.0508 0002624 235.4241 124.6348 11.96659068130076
GLOBALSTAR M046         
1 25651U 99012C   24128.71901696 -.00000049  00000+0  43300-3 0  9992
2 25651  52.0048 278.0659 0002833 152.5449 308.2967 12.09388040134607
GLOBALSTAR M037         
1 25652U 99012D   24129.06713301 -.00000073  00000+0  17065-3 0  9992
2 25652  52.0018 337.7687 0002223  33.1057 135.5932 12.62404333160167
